KUIPER-00104            
1 65142U 25171L   25317.37015007  .00038397  00000+0  21294-2 0  9994
2 65142  51.8889 314.4990 0005251 107.3946 252.7605 15.13397297 15631
KUIPER-00105            
1 65143U 25171M   25317.83335647 -.00847279  00000+0 -10675+0 0  9998
2 65143  51.9018 317.9762 0012698  85.4437 162.2277 14.84180554  3759
KUIPER-00106            
1 65144U 25171N   25317.39903933  .00016524  00000+0  14727-2 0  9993
2 65144  51.8946 323.0476 0009833  72.0206 288.1834 14.96076771 15525
KUIPER-00107            
1 65145U 25171P   25317.83335647  .00094624  00000+0  30221-2 0  9998
2 65145  51.8778 309.2358 0006863  99.6959 289.2340 15.31657870  5803
KUIPER-00108            
1 65146U 25171Q   25317.83335647 -.01006234  00000+0 -87255-1 0  9990
2 65146  51.9183 313.8027 0009224  89.0107 207.3209 14.99459159  5720
KUIPER-00109            
1 65147U 25171R   25317.83335647 -.01035991  00000+0 -60276-1 0  9997
2 65147  51.8840 311.1389 0013085  98.0618 131.4165 15.14572918  5038
KUIPER-00110            
1 65148U 25171S   25317.83335647 -.01073719  00000+0 -13679+0 0  9991
2 65148  51.8968 320.1301 0010726  89.3904 168.3012 14.83954437  5095
KUIPER-00111            
1 65149U 25171T   25317.44230102  .00009502  00000+0  12707-2 0  9999
2 65149  51.8984 327.1224 0010100  95.2902 264.9213 14.80006976 15466
