<?xml version="1.0" encoding="UTF-8"?>
<ndm xmlns:xsi="http://www.w3.org/2001/XMLSchema-instance" xsi:noNamespaceSchemaLocation="https://sanaregistry.org/r/ndmxml_unqualified/ndmxml-2.0.0-master-2.0.xsd">
<omm id="CCSDS_OMM_VERS" version="2.0">
<header><CREATION_DATE/><ORIGINATOR/></header><body><segment><metadata><OBJECT_NAME>KUIPER-00104</OBJECT_NAME><OBJECT_ID>2025-171L</OBJECT_ID><CENTER_NAME>EARTH</CENTER_NAME><REF_FRAME>TEME</REF_FRAME><TIME_SYSTEM>UTC</TIME_SYSTEM><MEAN_ELEMENT_THEORY>SGP4</MEAN_ELEMENT_THEORY></metadata><data><meanElements><EPOCH>2025-11-13T08:53:00.966048</EPOCH><MEAN_MOTION>15.13397297</MEAN_MOTION><ECCENTRICITY>.0005251</ECCENTRICITY><INCLINATION>51.8889</INCLINATION><RA_OF_ASC_NODE>314.4990</RA_OF_ASC_NODE><ARG_OF_PERICENTER>107.3946</ARG_OF_PERICENTER><MEAN_ANOMALY>252.7605</MEAN_ANOMALY></meanElements><tleParameters><EPHEMERIS_TYPE>0</EPHEMERIS_TYPE><CLASSIFICATION_TYPE>U</CLASSIFICATION_TYPE><NORAD_CAT_ID>65142</NORAD_CAT_ID><ELEMENT_SET_NO>999</ELEMENT_SET_NO><REV_AT_EPOCH>1563</REV_AT_EPOCH><BSTAR>.21294E-2</BSTAR><MEAN_MOTION_DOT>.38397E-3</MEAN_MOTION_DOT><MEAN_MOTION_DDOT>0</MEAN_MOTION_DDOT></tleParameters></data></segment></body></omm>
<omm id="CCSDS_OMM_VERS" version="2.0">
<header><CREATION_DATE/><ORIGINATOR/></header><body><segment><metadata><OBJECT_NAME>KUIPER-00105</OBJECT_NAME><OBJECT_ID>2025-171M</OBJECT_ID><CENTER_NAME>EARTH</CENTER_NAME><REF_FRAME>TEME</REF_FRAME><TIME_SYSTEM>UTC</TIME_SYSTEM><MEAN_ELEMENT_THEORY>SGP4</MEAN_ELEMENT_THEORY></metadata><data><meanElements><EPOCH>2025-11-13T20:00:01.999008</EPOCH><MEAN_MOTION>14.84180554</MEAN_MOTION><ECCENTRICITY>.0012698</ECCENTRICITY><INCLINATION>51.9018</INCLINATION><RA_OF_ASC_NODE>317.9762</RA_OF_ASC_NODE><ARG_OF_PERICENTER>85.4437</ARG_OF_PERICENTER><MEAN_ANOMALY>162.2277</MEAN_ANOMALY></meanElements><tleParameters><EPHEMERIS_TYPE>0</EPHEMERIS_TYPE><CLASSIFICATION_TYPE>U</CLASSIFICATION_TYPE><NORAD_CAT_ID>65143</NORAD_CAT_ID><ELEMENT_SET_NO>999</ELEMENT_SET_NO><REV_AT_EPOCH>375</REV_AT_EPOCH><BSTAR>-.10675E+0</BSTAR><MEAN_MOTION_DOT>-.847279E-2</MEAN_MOTION_DOT><MEAN_MOTION_DDOT>0</MEAN_MOTION_DDOT></tleParameters></data></segment></body></omm>
<omm id="CCSDS_OMM_VERS" version="2.0">
<header><CREATION_DATE/><ORIGINATOR/></header><body><segment><metadata><OBJECT_NAME>KUIPER-00106</OBJECT_NAME><OBJECT_ID>2025-171N</OBJECT_ID><CENTER_NAME>EARTH</CENTER_NAME><REF_FRAME>TEME</REF_FRAME><TIME_SYSTEM>UTC</TIME_SYSTEM><MEAN_ELEMENT_THEORY>SGP4</MEAN_ELEMENT_THEORY></metadata><data><meanElements><EPOCH>2025-11-13T09:34:36.998112</EPOCH><MEAN_MOTION>14.96076771</MEAN_MOTION><ECCENTRICITY>.0009833</ECCENTRICITY><INCLINATION>51.8946</INCLINATION><RA_OF_ASC_NODE>323.0476</RA_OF_ASC_NODE><ARG_OF_PERICENTER>72.0206</ARG_OF_PERICENTER><MEAN_ANOMALY>288.1834</MEAN_ANOMALY></meanElements><tleParameters><EPHEMERIS_TYPE>0</EPHEMERIS_TYPE><CLASSIFICATION_TYPE>U</CLASSIFICATION_TYPE><NORAD_CAT_ID>65144</NORAD_CAT_ID><ELEMENT_SET_NO>999</ELEMENT_SET_NO><REV_AT_EPOCH>1552</REV_AT_EPOCH><BSTAR>.14727E-2</BSTAR><MEAN_MOTION_DOT>.16524E-3</MEAN_MOTION_DOT><MEAN_MOTION_DDOT>0</MEAN_MOTION_DDOT></tleParameters></data></segment></body></omm>
<omm id="CCSDS_OMM_VERS" version="2.0">
<header><CREATION_DATE/><ORIGINATOR/></header><body><segment><metadata><OBJECT_NAME>KUIPER-00107</OBJECT_NAME><OBJECT_ID>2025-171P</OBJECT_ID><CENTER_NAME>EARTH</CENTER_NAME><REF_FRAME>TEME</REF_FRAME><TIME_SYSTEM>UTC</TIME_SYSTEM><MEAN_ELEMENT_THEORY>SGP4</MEAN_ELEMENT_THEORY></metadata><data><meanElements><EPOCH>2025-11-13T20:00:01.999008</EPOCH><MEAN_MOTION>15.31657870</MEAN_MOTION><ECCENTRICITY>.0006863</ECCENTRICITY><INCLINATION>51.8778</INCLINATION><RA_OF_ASC_NODE>309.2358</RA_OF_ASC_NODE><ARG_OF_PERICENTER>99.6959</ARG_OF_PERICENTER><MEAN_ANOMALY>289.2340</MEAN_ANOMALY></meanElements><tleParameters><EPHEMERIS_TYPE>0</EPHEMERIS_TYPE><CLASSIFICATION_TYPE>U</CLASSIFICATION_TYPE><NORAD_CAT_ID>65145</NORAD_CAT_ID><ELEMENT_SET_NO>999</ELEMENT_SET_NO><REV_AT_EPOCH>580</REV_AT_EPOCH><BSTAR>.30221E-2</BSTAR><MEAN_MOTION_DOT>.94624E-3</MEAN_MOTION_DOT><MEAN_MOTION_DDOT>0</MEAN_MOTION_DDOT></tleParameters></data></segment></body></omm>
<omm id="CCSDS_OMM_VERS" version="2.0">
<header><CREATION_DATE/><ORIGINATOR/></header><body><segment><metadata><OBJECT_NAME>KUIPER-00108</OBJECT_NAME><OBJECT_ID>2025-171Q</OBJECT_ID><CENTER_NAME>EARTH</CENTER_NAME><REF_FRAME>TEME</REF_FRAME><TIME_SYSTEM>UTC</TIME_SYSTEM><MEAN_ELEMENT_THEORY>SGP4</MEAN_ELEMENT_THEORY></metadata><data><meanElements><EPOCH>2025-11-13T20:00:01.999008</EPOCH><MEAN_MOTION>14.99459159</MEAN_MOTION><ECCENTRICITY>.0009224</ECCENTRICITY><INCLINATION>51.9183</INCLINATION><RA_OF_ASC_NODE>313.8027</RA_OF_ASC_NODE><ARG_OF_PERICENTER>89.0107</ARG_OF_PERICENTER><MEAN_ANOMALY>207.3209</MEAN_ANOMALY></meanElements><tleParameters><EPHEMERIS_TYPE>0</EPHEMERIS_TYPE><CLASSIFICATION_TYPE>U</CLASSIFICATION_TYPE><NORAD_CAT_ID>65146</NORAD_CAT_ID><ELEMENT_SET_NO>999</ELEMENT_SET_NO><REV_AT_EPOCH>572</REV_AT_EPOCH><BSTAR>-.87255E-1</BSTAR><MEAN_MOTION_DOT>-.1006234E-1</MEAN_MOTION_DOT><MEAN_MOTION_DDOT>0</MEAN_MOTION_DDOT></tleParameters></data></segment></body></omm>
<omm id="CCSDS_OMM_VERS" version="2.0">
<header><CREATION_DATE/><ORIGINATOR/></header><body><segment><metadata><OBJECT_NAME>KUIPER-00109</OBJECT_NAME><OBJECT_ID>2025-171R</OBJECT_ID><CENTER_NAME>EARTH</CENTER_NAME><REF_FRAME>TEME</REF_FRAME><TIME_SYSTEM>UTC</TIME_SYSTEM><MEAN_ELEMENT_THEORY>SGP4</MEAN_ELEMENT_THEORY></metadata><data><meanElements><EPOCH>2025-11-13T20:00:01.999008</EPOCH><MEAN_MOTION>15.14572918</MEAN_MOTION><ECCENTRICITY>.0013085</ECCENTRICITY><INCLINATION>51.8840</INCLINATION><RA_OF_ASC_NODE>311.1389</RA_OF_ASC_NODE><ARG_OF_PERICENTER>98.0618</ARG_OF_PERICENTER><MEAN_ANOMALY>131.4165</MEAN_ANOMALY></meanElements><tleParameters><EPHEMERIS_TYPE>0</EPHEMERIS_TYPE><CLASSIFICATION_TYPE>U</CLASSIFICATION_TYPE><NORAD_CAT_ID>65147</NORAD_CAT_ID><ELEMENT_SET_NO>999</ELEMENT_SET_NO><REV_AT_EPOCH>503</REV_AT_EPOCH><BSTAR>-.60276E-1</BSTAR><MEAN_MOTION_DOT>-.1035991E-1</MEAN_MOTION_DOT><MEAN_MOTION_DDOT>0</MEAN_MOTION_DDOT></tleParameters></data></segment></body></omm>
<omm id="CCSDS_OMM_VERS" version="2.0">
<header><CREATION_DATE/><ORIGINATOR/></header><body><segment><metadata><OBJECT_NAME>KUIPER-00110</OBJECT_NAME><OBJECT_ID>2025-171S</OBJECT_ID><CENTER_NAME>EARTH</CENTER_NAME><REF_FRAME>TEME</REF_FRAME><TIME_SYSTEM>UTC</TIME_SYSTEM><MEAN_ELEMENT_THEORY>SGP4</MEAN_ELEMENT_THEORY></metadata><data><meanElements><EPOCH>2025-11-13T20:00:01.999008</EPOCH><MEAN_MOTION>14.83954437</MEAN_MOTION><ECCENTRICITY>.0010726</ECCENTRICITY><INCLINATION>51.8968</INCLINATION><RA_OF_ASC_NODE>320.1301</RA_OF_ASC_NODE><ARG_OF_PERICENTER>89.3904</ARG_OF_PERICENTER><MEAN_ANOMALY>168.3012</MEAN_ANOMALY></meanElements><tleParameters><EPHEMERIS_TYPE>0</EPHEMERIS_TYPE><CLASSIFICATION_TYPE>U</CLASSIFICATION_TYPE><NORAD_CAT_ID>65148</NORAD_CAT_ID><ELEMENT_SET_NO>999</ELEMENT_SET_NO><REV_AT_EPOCH>509</REV_AT_EPOCH><BSTAR>-.13679E+0</BSTAR><MEAN_MOTION_DOT>-.1073719E-1</MEAN_MOTION_DOT><MEAN_MOTION_DDOT>0</MEAN_MOTION_DDOT></tleParameters></data></segment></body></omm>
<omm id="CCSDS_OMM_VERS" version="2.0">
<header><CREATION_DATE/><ORIGINATOR/></header><body><segment><metadata><OBJECT_NAME>KUIPER-00111</OBJECT_NAME><OBJECT_ID>2025-171T</OBJECT_ID><CENTER_NAME>EARTH</CENTER_NAME><REF_FRAME>TEME</REF_FRAME><TIME_SYSTEM>UTC</TIME_SYSTEM><MEAN_ELEMENT_THEORY>SGP4</MEAN_ELEMENT_THEORY></metadata><data><meanElements><EPOCH>2025-11-13T10:36:54.808128</EPOCH><MEAN_MOTION>14.80006976</MEAN_MOTION><ECCENTRICITY>.00101</ECCENTRICITY><INCLINATION>51.8984</INCLINATION><RA_OF_ASC_NODE>327.1224</RA_OF_ASC_NODE><ARG_OF_PERICENTER>95.2902</ARG_OF_PERICENTER><MEAN_ANOMALY>264.9213</MEAN_ANOMALY></meanElements><tleParameters><EPHEMERIS_TYPE>0</EPHEMERIS_TYPE><CLASSIFICATION_TYPE>U</CLASSIFICATION_TYPE><NORAD_CAT_ID>65149</NORAD_CAT_ID><ELEMENT_SET_NO>999</ELEMENT_SET_NO><REV_AT_EPOCH>1546</REV_AT_EPOCH><BSTAR>.12707E-2</BSTAR><MEAN_MOTION_DOT>.9502E-4</MEAN_MOTION_DOT><MEAN_MOTION_DDOT>0</MEAN_MOTION_DDOT></tleParameters></data></segment></body></omm>

</ndm>
